NORAD_CAT_ID,OBJECT_NAME,OBJECT_TYPE,EPOCH,MEAN_MOTION,ECCENTRICITY,INCLINATION,RA_OF_ASC_NODE,ARG_OF_PERICENTER,MEAN_ANOMALY,BSTAR,MEAN_MOTION_DOT,MEAN_MOTION_DDOT,TLE_LINE0,TLE_LINE1,TLE_LINE2,SEMIMAJOR_AXIS,PERIOD,APOGEE,PERIGEE,DECAYED
51873.0,STARLINK-3582,PAYLOAD,2024-02-25 03:01:06,15.08838842,0.0001514,53.2161,107.1203,89.803,270.3136,6.9094e-05,8.12e-06,0.0,0 STARLINK-3582,1 51873U 22022X   24056.12576499  .00000812  00000-0  69094-4 0  9995,2 51873  53.2161 107.1203 0001514  89.8030 270.3136 15.08838842110862,6917.884,95.438,540.796,538.702,0.0
51873.0,STARLINK-3582,PAYLOAD,2024-02-25 10:58:01,15.08847595,0.0001451,53.2161,105.6335,88.1286,271.9872,8.4546e-05,1.058e-05,0.0,0 STARLINK-3582,1 51873U 22022X   24056.45695896  .00001058  00000-0  84546-4 0  9996,2 51873  53.2161 105.6335 0001451  88.1286 271.9872 15.08847595110911,6917.857,95.437,540.726,538.718,0.0
51873.0,STARLINK-3582,PAYLOAD,2024-02-25 20:30:19,15.08846676,0.0001509,53.2162,103.8495,88.7098,271.4067,0.00013645,1.885e-05,0.0,0 STARLINK-3582,1 51873U 22022X   24056.85439740  .00001885  00000-0  13645-3 0  9993,2 51873  53.2162 103.8495 0001509  88.7098 271.4067 15.08846676110976,6917.86,95.437,540.769,538.681,0.0
51873.0,STARLINK-3582,PAYLOAD,2024-02-26 02:51:52,15.08842493,0.0001801,53.2165,102.6611,89.0196,271.1003,0.00014653,2.045e-05,0.0,0 STARLINK-3582,1 51873U 22022X   24057.11936068  .00002045  00000-0  14653-3 0  9997,2 51873  53.2165 102.6611 0001801  89.0196 271.1003 15.08842493111010,6917.873,95.437,540.984,538.492,0.0
51873.0,STARLINK-3582,PAYLOAD,2024-02-26 09:13:25,15.0884719,0.0001641,53.2162,101.4718,86.5639,273.554,0.00014572,2.032e-05,0.0,0 STARLINK-3582,1 51873U 22022X   24057.38431754  .00002032  00000-0  14572-3 0  9994,2 51873  53.2162 101.4718 0001641  86.5639 273.5540 15.08847190111053,6917.858,95.437,540.859,538.588,0.0
51873.0,STARLINK-3582,PAYLOAD,2024-02-27 02:42:40,15.08843206,0.0002045,53.2158,98.2026,80.5402,279.5821,-5.655e-05,-1.188e-05,0.0,0 STARLINK-3582,1 51873U 22022X   24058.11296628 -.00001188  00000-0 -56550-4 0  9991,2 51873  53.2158  98.2026 0002045  80.5402 279.5821 15.08843206111168,6917.871,95.437,541.15,538.321,0.0
51873.0,STARLINK-3582,PAYLOAD,2024-02-27 09:04:13,15.08835313,0.0001484,53.2167,97.01,90.0185,270.0978,-1.6016e-05,-5.43e-06,0.0,0 STARLINK-3582,1 51873U 22022X   24058.37792849 -.00000543  00000-0 -16016-4 0  9992,2 51873  53.2167  97.0100 0001484  90.0185 270.0978 15.08835313111202,6917.895,95.438,540.786,538.733,0.0
51873.0,STARLINK-3582,PAYLOAD,2024-02-28 08:54:59,15.0884345,0.0001234,53.2165,92.5483,94.9134,265.1999,0.0001215,1.647e-05,0.0,0 STARLINK-3582,1 51873U 22022X   24059.37151835  .00001647  00000-0  12150-3 0  9995,2 51873  53.2165  92.5483 0001234  94.9134 265.1999 15.08843450111359,6917.87,95.437,540.589,538.881,0.0
51873.0,STARLINK-3582,PAYLOAD,2024-02-29 11:56:33,15.08835289,0.0001417,53.2165,87.4948,91.4645,268.651,0.00010999,1.463e-05,0.0,0 STARLINK-3582,1 51873U 22022X   24060.49760649  .00001463  00000-0  10999-3 0  9994,2 51873  53.2165  87.4948 0001417  91.4645 268.6510 15.08835289111527,6917.895,95.438,540.74,538.78,0.0
51873.0,STARLINK-3582,PAYLOAD,2024-02-29 18:18:06,15.08831995,0.0001308,53.2156,86.304,87.0017,273.1124,2.0912e-05,4.5e-07,0.0,0 STARLINK-3582,1 51873U 22022X   24060.76257179  .00000045  00000-0  20912-4 0  9995,2 51873  53.2156  86.3040 0001308  87.0017 273.1124 15.08831995111567,6917.905,95.438,540.675,538.865,0.0
51873.0,STARLINK-3582,PAYLOAD,2024-03-01 02:15:02,15.0883391,0.0001399,53.2154,84.8169,93.8472,266.268,-3.3437e-05,-8.2e-06,0.0,0 STARLINK-3582,1 51873U 22022X   24061.09377351 -.00000820  00000-0 -33437-4 0  9996,2 51873  53.2154  84.8169 0001399  93.8472 266.2680 15.08833910111615,6917.899,95.438,540.732,538.796,0.0
51873.0,STARLINK-3582,PAYLOAD,2024-03-01 08:36:34,15.08838374,0.0001406,53.2166,83.6298,90.2688,269.8465,1.1544e-05,-1.04e-06,0.0,0 STARLINK-3582,1 51873U 22022X   24061.35873048 -.00000104  00000-0  11544-4 0  9998,2 51873  53.2166  83.6298 0001406  90.2688 269.8465 15.08838374111650,6917.885,95.438,540.723,538.778,0.0
51873.0,STARLINK-3582,PAYLOAD,2024-03-01 18:08:53,15.08838334,0.0001359,53.2161,81.8442,88.9744,271.1404,6.1393e-05,6.89e-06,0.0,0 STARLINK-3582,1 51873U 22022X   24061.75616907  .00000689  00000-0  61393-4 0  9995,2 51873  53.2161  81.8442 0001359  88.9744 271.1404 15.08838334111712,6917.885,95.438,540.691,538.81,0.0
51873.0,STARLINK-3582,PAYLOAD,2024-03-02 08:27:20,15.08844016,0.0001387,53.2161,79.1675,85.7501,274.365,0.00012639,1.724e-05,0.0,0 STARLINK-3582,1 51873U 22022X   24062.35232495  .00001724  00000-0  12639-3 0  9997,2 51873  53.2161  79.1675 0001387  85.7501 274.3650 15.08844016111809,6917.868,95.437,540.693,538.774,0.0
51873.0,STARLINK-3582,PAYLOAD,2024-03-02 17:59:39,15.08844086,0.0001361,53.2153,77.3811,76.3579,283.7565,0.0001167,1.57e-05,0.0,0 STARLINK-3582,1 51873U 22022X   24062.74976481  .00001570  00000-0  11670-3 0  9993,2 51873  53.2153  77.3811 0001361  76.3579 283.7565 15.08844086111867,6917.868,95.437,540.674,538.791,0.0
51873.0,STARLINK-3582,PAYLOAD,2024-03-03 05:07:22,15.08830534,0.0001567,53.2168,75.3013,81.937,278.18,-2.2708e-05,-6.49e-06,0.0,0 STARLINK-3582,1 51873U 22022X   24063.21345956 -.00000649  00000-0 -22708-4 0  9996,2 51873  53.2168  75.3013 0001567  81.9370 278.1800 15.08830534111935,6917.909,95.438,540.858,538.69,0.0
51873.0,STARLINK-3582,PAYLOAD,2024-03-03 09:53:31,15.08835816,0.0001499,53.2163,74.4088,83.8959,276.2204,1.5055e-05,-4.8e-07,0.0,0 STARLINK-3582,1 51873U 22022X   24063.41217563 -.00000048  00000-0  15055-4 0  9999,2 51873  53.2163  74.4088 0001499  83.8959 276.2204 15.08835816111968,6917.893,95.438,540.795,538.721,0.0
51873.0,STARLINK-3582,PAYLOAD,2024-03-04 04:58:08,15.08849638,0.0001537,53.2167,70.8417,86.4307,273.686,9.5657e-05,1.235e-05,0.0,0 STARLINK-3582,1 51873U 22022X   24064.20704403  .00001235  00000-0  95657-4 0  9995,2 51873  53.2167  70.8417 0001537  86.4307 273.6860 15.08849638112087,6917.851,95.437,540.779,538.653,0.0
51873.0,STARLINK-3582,PAYLOAD,2024-03-04 06:33:31,15.08852786,0.0001477,53.2165,70.5445,88.0454,272.0707,7.2605e-05,8.68e-06,0.0,0 STARLINK-3582,1 51873U 22022X   24064.27328262  .00000868  00000-0  72605-4 0  9996,2 51873  53.2165  70.5445 0001477  88.0454 272.0707 15.08852786112099,6917.841,95.437,540.728,538.685,0.0
51873.0,STARLINK-3582,PAYLOAD,2024-03-04 17:41:14,15.0884234,0.0001639,53.2176,68.4582,96.6641,263.4537,2.6654e-05,1.36e-06,0.0,0 STARLINK-3582,1 51873U 22022X   24064.73696795  .00000136  00000-0  26654-4 0  9997,2 51873  53.2176  68.4582 0001639  96.6641 263.4537 15.08842340112160,6917.873,95.437,540.872,538.604,0.0
51873.0,STARLINK-3582,PAYLOAD,2024-03-05 09:35:06,15.0883097,0.0001869,53.2187,65.4837,109.0672,251.0522,-4.7425e-06,-3.64e-06,0.0,0 STARLINK-3582,1 51873U 22022X   24065.39937861 -.00000364  00000-0 -47425-5 0  9997,2 51873  53.2187  65.4837 0001869 109.0672 251.0522 15.08830970112264,6917.908,95.438,541.066,538.48,0.0
51873.0,STARLINK-3582,PAYLOAD,2024-03-05 17:32:02,15.08831751,0.0001862,53.2191,63.9971,107.3362,252.7834,3.6277e-05,2.89e-06,0.0,0 STARLINK-3582,1 51873U 22022X   24065.73057893  .00000289  00000-0  36277-4 0  9999,2 51873  53.2191  63.9971 0001862 107.3362 252.7834 15.08831751112319,6917.906,95.438,541.059,538.482,0.0
51873.0,STARLINK-3582,PAYLOAD,2024-03-06 03:04:20,15.08837963,0.0001197,53.2178,62.2138,114.2512,245.8605,0.00021134,3.077e-05,0.0,0 STARLINK-3582,1 51873U 22022X   24066.12800961  .00003077  00000-0  21134-3 0  9998,2 51873  53.2178  62.2138 0001197 114.2512 245.8605 15.08837963112372,6917.887,95.438,540.58,538.924,0.0
51873.0,STARLINK-3582,PAYLOAD,2024-03-06 09:25:52,15.08854334,0.0001636,53.2177,61.025,104.3875,255.7298,8.1836e-06,-1.58e-06,0.0,0 STARLINK-3582,1 51873U 22022X   24066.39296458 -.00000158  00000-0  81836-5 0  9992,2 51873  53.2177  61.0250 0001636 104.3875 255.7298 15.08854334112417,6917.837,95.437,540.833,538.57,0.0
51873.0,STARLINK-3582,PAYLOAD,2024-03-07 02:55:07,15.08831999,0.0001832,53.2177,57.7528,116.295,243.8231,9.7139e-05,1.258e-05,0.0,0 STARLINK-3582,1 51873U 22022X   24067.12161717  .00001258  00000-0  97139-4 0  9996,2 51873  53.2177  57.7528 0001832 116.2950 243.8231 15.08831999112520,6917.905,95.438,541.037,538.502,0.0
51873.0,STARLINK-3582,PAYLOAD,2024-03-07 09:16:39,15.08839861,0.0001462,53.2181,56.5649,101.6697,258.446,0.00011358,1.52e-05,0.0,0 STARLINK-3582,1 51873U 22022X   24067.38657402  .00001520  00000-0  11358-3 0  9995,2 51873  53.2181  56.5649 0001462 101.6697 258.4460 15.08839861112567,6917.881,95.438,540.757,538.734,0.0
51873.0,STARLINK-3582,PAYLOAD,2024-03-08 05:56:40,15.08840404,0.0001342,53.2174,52.7006,99.2932,260.8212,8.3518e-05,1.042e-05,0.0,0 STARLINK-3582,1 51873U 22022X   24068.24769579  .00001042  00000-0  83518-4 0  9997,2 51873  53.2174  52.7006 0001342  99.2932 260.8212 15.08840404112696,6917.879,95.438,540.673,538.816,0.0
51873.0,STARLINK-3582,PAYLOAD,2024-03-08 21:50:32,15.08835226,0.000132,53.2175,49.7279,95.4266,264.6877,7.8702e-05,9.65e-06,0.0,0 STARLINK-3582,1 51873U 22022X   24068.91009931  .00000965  00000-0  78702-4 0  9992,2 51873  53.2175  49.7279 0001320  95.4266 264.6877 15.08835226112795,6917.895,95.438,540.673,538.847,0.0
51873.0,STARLINK-3582,PAYLOAD,2024-03-09 04:12:05,15.08836598,0.0001309,53.218,48.5372,95.8486,264.2656,-1.4812e-05,-5.24e-06,0.0,0 STARLINK-3582,1 51873U 22022X   24069.17506225 -.00000524  00000-0 -14812-4 0  9994,2 51873  53.2180  48.5372 0001309  95.8486 264.2656 15.08836598112836,6917.891,95.438,540.661,538.85,0.0
51873.0,STARLINK-3582,PAYLOAD,2024-03-09 07:22:51,15.08836809,0.0001298,53.218,47.943,88.4362,271.6779,1.0013e-05,-1.29e-06,0.0,0 STARLINK-3582,1 51873U 22022X   24069.30754216 -.00000129  00000-0  10013-4 0  9993,2 51873  53.2180  47.9430 0001298  88.4362 271.6779 15.08836809112857,6917.89,95.438,540.653,538.857,0.0
